OBJECT_NAME,OBJECT_ID,EPOCH,MEAN_MOTION,ECCENTRICITY,INCLINATION,RA_OF_ASC_NODE,ARG_OF_PERICENTER,MEAN_ANOMALY,EPHEMERIS_TYPE,CLASSIFICATION_TYPE,NORAD_CAT_ID,ELEMENT_SET_NO,REV_AT_EPOCH,BSTAR,MEAN_MOTION_DOT,MEAN_MOTION_DDOT
IRIDIUM 135,2017-083A,2026-06-16T12:34:03.183744,14.34217499,.00020631,86.3961,322.2929,91.4719,268.6713,0,U,43070,999,44405,-.4318312E-5,.8E-7,0
IRIDIUM 138,2017-083B,2026-06-16T11:30:07.142112,14.34217762,.00023243,86.3977,322.0067,87.1801,272.9660,0,U,43071,999,44403,.45245479E-4,.146E-5,0
IRIDIUM 116,2017-083C,2026-06-16T12:24:55.111392,14.34217830,.00019585,86.3962,322.2814,98.4570,261.6848,0,U,43072,999,44407,.1530662E-5,.24E-6,0
IRIDIUM 130,2017-083D,2026-06-16T11:39:14.995008,14.34218464,.0001928,86.3969,322.5698,91.7783,268.3634,0,U,43073,999,44401,.28481309E-4,.1E-5,0
IRIDIUM 151,2017-083E,2026-06-16T11:02:43.179072,14.34217590,.00021552,86.3965,322.3630,92.7488,267.3954,0,U,43074,999,44403,-.5678504E-5,.4E-7,0
IRIDIUM 134,2017-083F,2026-06-16T11:57:31.151808,14.34217414,.00019706,86.3962,322.3553,91.4410,268.7011,0,U,43075,999,44400,-.14660783E-4,-.21E-6,0
IRIDIUM 137,2017-083G,2026-06-16T12:15:47.149632,14.34217784,.00022453,86.3968,322.4427,103.8016,256.3430,0,U,43076,999,44407,-.63757E-6,.18E-6,0
IRIDIUM 141,2017-083H,2026-06-16T12:06:39.122208,14.34217923,.0002208,86.3962,322.2759,90.9096,269.2353,0,U,43077,999,44407,.2780244E-5,.28E-6,0
IRIDIUM 153,2017-083J,2026-06-16T14:18:43.434720,14.34217623,.00021458,86.3957,290.7180,89.8448,270.2993,0,U,43078,999,44519,-.382029E-6,.19E-6,0
IRIDIUM 131,2017-083K,2026-06-15T20:44:10.960800,14.34219103,.00022171,86.3968,322.7297,92.0861,268.0589,0,U,43079,999,44391,.43115215E-4,.141E-5,0
IRIDIUM 144,2018-030A,2026-06-15T20:02:43.255104,14.34218493,.00021065,86.3958,290.9653,96.4936,263.6500,0,U,43249,999,42994,.24000395E-4,.87E-6,0
IRIDIUM 149,2018-030B,2026-06-16T14:36:59.470560,14.34217235,.00021342,86.3954,290.6088,93.9882,266.1558,0,U,43250,999,43007,-.13978835E-4,-.19E-6,0
IRIDIUM 157,2018-030C,2026-06-16T15:04:23.442240,14.34217373,.00020736,86.3956,290.6541,94.1116,266.0317,0,U,43251,999,43005,-.1283086E-4,-.16E-6,0
IRIDIUM 140,2018-030D,2026-06-16T13:51:19.430208,14.34217459,.00020318,86.3956,290.6878,93.6183,266.5245,0,U,43252,999,43010,-.5578578E-5,.4E-7,0
IRIDIUM 145,2018-030E,2026-06-16T10:12:07.398432,14.34217516,.00019786,86.3958,290.7236,101.0274,259.1144,0,U,43253,999,43001,.4647966E-5,.33E-6,0
IRIDIUM 146,2018-030F,2026-06-16T09:44:43.325664,14.34218284,.00021068,86.3958,290.7438,96.6538,263.4898,0,U,43254,999,43002,.21427882E-4,.8E-6,0
IRIDIUM 148,2018-030G,2026-06-16T14:00:27.455904,14.34217744,.00022596,86.3960,290.7126,96.3704,263.7749,0,U,43255,999,43008,.8082313E-5,.42E-6,0
IRIDIUM 142,2018-030H,2026-06-16T09:53:51.424800,14.34217412,.00020896,86.3955,290.6732,98.7561,261.3872,0,U,43256,999,43002,.1739414E-5,.25E-6,0
IRIDIUM 150,2018-030J,2026-06-16T14:09:35.434080,14.34217601,.00021369,86.3959,290.7153,93.5533,266.5908,0,U,43257,999,43007,.1810272E-5,.25E-6,0
IRIDIUM 143,2018-030K,2026-06-16T15:22:39.416736,14.34217272,.00019658,86.3959,290.7868,96.6397,263.5023,0,U,43258,999,43001,-.14341263E-4,-.2E-6,0
IRIDIUM 161,2018-047C,2026-06-16T08:05:18.794976,14.43282515,.00025131,86.4481,88.8266,84.5503,275.5984,0,U,43478,999,42501,.74362024E-4,.27E-5,0
IRIDIUM 152,2018-047D,2026-06-16T04:40:34.235616,14.34218238,.0002327,86.3959,88.7473,82.9531,277.1929,0,U,43479,999,42234,.26195E-4,.93E-6,0
IRIDIUM 147,2018-047E,2026-06-16T11:31:34.293792,14.34217561,.00021297,86.3959,88.6330,85.6546,274.4893,0,U,43480,999,42238,.4115098E-5,.31E-6,0
IRIDIUM 110,2018-047F,2026-06-16T11:40:42.367872,14.34217150,.00025716,86.3961,88.7221,82.5757,277.5731,0,U,43481,999,42237,.20876229E-4,.78E-6,0
IRIDIUM 162,2018-047G,2026-06-16T07:56:15.295776,14.43281281,.00022686,86.4481,88.7204,82.4078,277.7381,0,U,43482,999,42500,.78663014E-4,.285E-5,0
IRIDIUM 160,2018-061A,2026-06-16T10:22:42.474720,14.34218031,.00022582,86.3963,57.1131,85.4201,274.7253,0,U,43569,999,41326,.19309297E-4,.74E-6,0
IRIDIUM 166,2018-061B,2026-06-16T14:20:10.482720,14.34217735,.00021014,86.3962,56.9946,86.3272,273.8164,0,U,43570,999,41331,.701428E-5,.39E-6,0
IRIDIUM 158,2018-061C,2026-06-16T10:13:34.455072,14.34217977,.00021836,86.3961,57.0762,82.4256,277.7188,0,U,43571,999,41325,.1979714E-4,.75E-6,0
IRIDIUM 165,2018-061D,2026-06-16T10:50:06.410976,14.34217516,.00020574,86.3964,57.1120,86.4541,273.6890,0,U,43572,999,41328,.2770376E-4,.97E-6,0
IRIDIUM 155,2018-061E,2026-06-16T09:55:18.486624,14.34217637,.00021088,86.3958,56.9968,82.6114,277.5321,0,U,43573,999,41324,.6368425E-5,.38E-6,0
