IRIDIUM 135             
1 43070U 17083A   26167.52364796  .00000008  00000+0 -43183-5 0  9999
2 43070  86.3961 322.2929 0002063  91.4719 268.6713 14.34217499444054
IRIDIUM 138             
1 43071U 17083B   26167.47924933  .00000146  00000+0  45245-4 0  9991
2 43071  86.3977 322.0067 0002324  87.1801 272.9660 14.34217762444037
IRIDIUM 116             
1 43072U 17083C   26167.51730453  .00000024  00000+0  15307-5 0  9991
2 43072  86.3962 322.2814 0001958  98.4570 261.6848 14.34217830444077
IRIDIUM 130             
1 43073U 17083D   26167.48559022  .00000100  00000+0  28481-4 0  9990
2 43073  86.3969 322.5698 0001928  91.7783 268.3634 14.34218464444012
IRIDIUM 151             
1 43074U 17083E   26167.46022198  .00000004  00000+0 -56785-5 0  9991
2 43074  86.3965 322.3630 0002155  92.7488 267.3954 14.34217590444034
IRIDIUM 134             
1 43075U 17083F   26167.49827722 -.00000021  00000+0 -14661-4 0  9997
2 43075  86.3962 322.3553 0001970  91.4410 268.7011 14.34217414444002
IRIDIUM 137             
1 43076U 17083G   26167.51096238  .00000018  00000+0 -63757-6 0  9998
2 43076  86.3968 322.4427 0002245 103.8016 256.3430 14.34217784444071
IRIDIUM 141             
1 43077U 17083H   26167.50461947  .00000028  00000+0  27802-5 0  9991
2 43077  86.3962 322.2759 0002208  90.9096 269.2353 14.34217923444077
IRIDIUM 153             
1 43078U 17083J   26167.59633605  .00000019  00000+0 -38203-6 0  9992
2 43078  86.3957 290.7180 0002145  89.8448 270.2993 14.34217623445190
IRIDIUM 131             
1 43079U 17083K   26166.86401575  .00000141  00000+0  43115-4 0  9992
2 43079  86.3968 322.7297 0002217  92.0861 268.0589 14.34219103443912
IRIDIUM 144             
1 43249U 18030A   26166.83522286  .00000087  00000+0  24000-4 0  9995
2 43249  86.3958 290.9653 0002106  96.4936 263.6500 14.34218493429942
IRIDIUM 149             
1 43250U 18030B   26167.60902165 -.00000019  00000+0 -13979-4 0  9991
2 43250  86.3954 290.6088 0002134  93.9882 266.1558 14.34217235430072
IRIDIUM 157             
1 43251U 18030C   26167.62804910 -.00000016  00000+0 -12831-4 0  9996
2 43251  86.3956 290.6541 0002073  94.1116 266.0317 14.34217373430057
IRIDIUM 140             
1 43252U 18030D   26167.57730822  .00000004  00000+0 -55786-5 0  9994
2 43252  86.3956 290.6878 0002031  93.6183 266.5245 14.34217459430109
IRIDIUM 145             
1 43253U 18030E   26167.42508563  .00000033  00000+0  46480-5 0  9996
2 43253  86.3958 290.7236 0001978 101.0274 259.1144 14.34217516430015
IRIDIUM 146             
1 43254U 18030F   26167.40605701  .00000080  00000+0  21428-4 0  9993
2 43254  86.3958 290.7438 0002106  96.6538 263.4898 14.34218284430024
IRIDIUM 148             
1 43255U 18030G   26167.58365111  .00000042  00000+0  80823-5 0  9994
2 43255  86.3960 290.7126 0002259  96.3704 263.7749 14.34217744430087
IRIDIUM 142             
1 43256U 18030H   26167.41240075  .00000025  00000+0  17394-5 0  9992
2 43256  86.3955 290.6732 0002089  98.7561 261.3872 14.34217412430029
IRIDIUM 150             
1 43257U 18030J   26167.58999345  .00000025  00000+0  18103-5 0  9991
2 43257  86.3959 290.7153 0002136  93.5533 266.5908 14.34217601430079
IRIDIUM 143             
1 43258U 18030K   26167.64073399 -.00000020  00000+0 -14341-4 0  9997
2 43258  86.3959 290.7868 0001965  96.6397 263.5023 14.34217272430017
IRIDIUM 161             
1 43478U 18047C   26167.33702309  .00000270  00000+0  74362-4 0  9999
2 43478  86.4481  88.8266 0002513  84.5503 275.5984 14.43282515425010
IRIDIUM 152             
1 43479U 18047D   26167.19484069  .00000093  00000+0  26195-4 0  9998
2 43479  86.3959  88.7473 0002327  82.9531 277.1929 14.34218238422346
IRIDIUM 147             
1 43480U 18047E   26167.48025803  .00000031  00000+0  41151-5 0  9991
2 43480  86.3959  88.6330 0002129  85.6546 274.4893 14.34217561422387
IRIDIUM 110             
1 43481U 18047F   26167.48660148  .00000078  00000+0  20876-4 0  9990
2 43481  86.3961  88.7221 0002571  82.5757 277.5731 14.34217150422370
IRIDIUM 162             
1 43482U 18047G   26167.33073259  .00000285  00000+0  78663-4 0  9993
2 43482  86.4481  88.7204 0002268  82.4078 277.7381 14.43281281425000
IRIDIUM 160             
1 43569U 18061A   26167.43243605  .00000074  00000+0  19309-4 0  9998
2 43569  86.3963  57.1131 0002258  85.4201 274.7253 14.34218031413262
IRIDIUM 166             
1 43570U 18061B   26167.59734355  .00000039  00000+0  70143-5 0  9999
2 43570  86.3962  56.9946 0002101  86.3272 273.8164 14.34217735413316
IRIDIUM 158             
1 43571U 18061C   26167.42609323  .00000075  00000+0  19797-4 0  9995
2 43571  86.3961  57.0762 0002183  82.4256 277.7188 14.34217977413253
IRIDIUM 165             
1 43572U 18061D   26167.45146309  .00000097  00000+0  27704-4 0  9990
2 43572  86.3964  57.1120 0002057  86.4541 273.6890 14.34217516413284
IRIDIUM 155             
1 43573U 18061E   26167.41340841  .00000038  00000+0  63684-5 0  9997
2 43573  86.3958  56.9968 0002108  82.6114 277.5321 14.34217637413248
